{"type": "FeatureCollection", "features": [{"type": "Feature", "geometry": {"type": "Point", "coordinates": [43.72, 42.41]}, "properties": {"mag": 6.2, "date": "1991-04-29", "place": "Java, Shida Kartli (G\u00fcrcistan) - [118.50 km] Posof (Ardahan)"}}, {"type": "Feature", "geometry": {"type": "Point", "coordinates": [40.0, 40.0]}, "properties": {"mag": 7.0, "date": "1992-03-13", "place": "Otlukbeli (Erzincan)"}}, {"type": "Feature", "geometry": {"type": "Point", "coordinates": [39.8, 39.6]}, "properties": {"mag": 6.1, "date": "1992-03-15", "place": "P\u00fcl\u00fcm\u00fcr (Tunceli)"}}, {"type": "Feature", "geometry": {"type": "Point", "coordinates": [39.83, 39.56]}, "properties": {"mag": 6.0, "date": "1992-04-28", "place": "P\u00fcl\u00fcm\u00fcr (Tunceli)"}}, {"type": "Feature", "geometry": {"type": "Point", "coordinates": [29.91, 40.7]}, "properties": {"mag": 7.4, "date": "1999-08-17", "place": "Ba\u015fiskele (Kocaeli)"}}, {"type": "Feature", "geometry": {"type": "Point", "coordinates": [31.21, 40.79]}, "properties": {"mag": 7.2, "date": "1999-11-12", "place": "Merkez (D\u00fczce)"}}, {"type": "Feature", "geometry": {"type": "Point", "coordinates": [31.3, 38.46]}, "properties": {"mag": 6.1, "date": "2002-02-03", "place": "Sultanda\u011f\u0131 (Afyonkarahisar)"}}, {"type": "Feature", "geometry": {"type": "Point", "coordinates": [39.8, 39.41]}, "properties": {"mag": 6.4, "date": "2003-01-27", "place": "P\u00fcl\u00fcm\u00fcr (Tunceli)"}}, {"type": "Feature", "geometry": {"type": "Point", "coordinates": [40.51, 38.94]}, "properties": {"mag": 6.1, "date": "2003-05-01", "place": "Merkez (Bing\u00f6l)"}}, {"type": "Feature", "geometry": {"type": "Point", "coordinates": [27.967, 36.0103]}, "properties": {"mag": 6.1, "date": "2008-07-15", "place": "Akdeniz - [70.15 km] Marmaris (Mu\u011fla)"}}, {"type": "Feature", "geometry": {"type": "Point", "coordinates": [43.4657, 38.689]}, "properties": {"mag": 6.7, "date": "2011-10-23", "place": "Tu\u015fba (Van)"}}, {"type": "Feature", "geometry": {"type": "Point", "coordinates": [28.9073, 36.5302]}, "properties": {"mag": 6.0, "date": "2012-06-10", "place": "Akdeniz - [17.00 km] Fethiye (Mu\u011fla)"}}, {"type": "Feature", "geometry": {"type": "Point", "coordinates": [28.8563, 35.7135]}, "properties": {"mag": 6.0, "date": "2012-07-09", "place": "Akdeniz - [75.07 km] Ka\u015f (Antalya)"}}, {"type": "Feature", "geometry": {"type": "Point", "coordinates": [31.332, 36.048]}, "properties": {"mag": 6.0, "date": "2013-12-28", "place": "Akdeniz - [74.69 km] Alanya (Antalya)"}}, {"type": "Feature", "geometry": {"type": "Point", "coordinates": [26.313, 38.8486]}, "properties": {"mag": 6.2, "date": "2017-06-12", "place": "Ege Denizi - [22.36 km] Karaburun (\u0130zmir)"}}, {"type": "Feature", "geometry": {"type": "Point", "coordinates": [27.4435, 36.9198]}, "properties": {"mag": 6.5, "date": "2017-07-20", "place": "Ege Denizi - [12.00 km] Bodrum (Mu\u011fla)"}}, {"type": "Feature", "geometry": {"type": "Point", "coordinates": [29.584, 37.851]}, "properties": {"mag": 6.0, "date": "2019-08-08", "place": "Bozkurt (Denizli)"}}, {"type": "Feature", "geometry": {"type": "Point", "coordinates": [39.063, 38.3593]}, "properties": {"mag": 6.8, "date": "2020-01-24", "place": "Sivrice (Elaz\u0131\u011f)"}}, {"type": "Feature", "geometry": {"type": "Point", "coordinates": [26.703, 37.879]}, "properties": {"mag": 6.6, "date": "2020-10-30", "place": "Ege Denizi - [27.20 km] Seferihisar (\u0130zmir)"}}, {"type": "Feature", "geometry": {"type": "Point", "coordinates": [37.03996, 37.27728]}, "properties": {"mag": 7.7, "date": "2023-02-06", "place": "Pazarc\u0131k (Kahramanmara\u015f)"}}, {"type": "Feature", "geometry": {"type": "Point", "coordinates": [36.91613, 37.29414]}, "properties": {"mag": 6.6, "date": "2023-02-06", "place": "Nurda\u011f\u0131 (Gaziantep)"}}, {"type": "Feature", "geometry": {"type": "Point", "coordinates": [37.23097, 38.078]}, "properties": {"mag": 7.6, "date": "2023-02-06", "place": "Elbistan (Kahramanmara\u015f)"}}, {"type": "Feature", "geometry": {"type": "Point", "coordinates": [36.02007, 36.02964]}, "properties": {"mag": 6.4, "date": "2023-02-20", "place": "Yaylada\u011f\u0131 (Hatay)"}}, {"type": "Feature", "geometry": {"type": "Point", "coordinates": [28.21539, 40.84373]}, "properties": {"mag": 6.2, "date": "2025-04-23", "place": "Marmara Denizi - [24.05 km] Silivri (\u0130stanbul)"}}, {"type": "Feature", "geometry": {"type": "Point", "coordinates": [25.92759, 35.70469]}, "properties": {"mag": 6.0, "date": "2025-05-22", "place": "Ege Denizi"}}, {"type": "Feature", "geometry": {"type": "Point", "coordinates": [28.06594, 39.24504]}, "properties": {"mag": 6.1, "date": "2025-08-10", "place": "S\u0131nd\u0131rg\u0131 (Bal\u0131kesir)"}}, {"type": "Feature", "geometry": {"type": "Point", "coordinates": [28.20056, 39.19694]}, "properties": {"mag": 6.1, "date": "2025-10-27", "place": "S\u0131nd\u0131rg\u0131 (Bal\u0131kesir)"}}]}